0 FENGYUN 1C DEB
1 33728U 99025DHR 13281.47044130  .00001931  00000-0  26236-3 0  4324
2 33728 098.9874 158.1221 0228146 030.1752 090.3100 14.63847530329122
0 FENGYUN 1C DEB
1 33728U 99025DHR 13283.85162302  .00002240  00000-0  30279-3 0  4337
2 33728 098.9871 160.7206 0227938 022.8801 038.8230 14.63867541329475
0 FENGYUN 1C DEB
1 33728U 99025DHR 13285.90070721  .00002812  00000-0  37759-3 0  4344
2 33728 098.9872 162.9560 0227944 016.6013 037.3429 14.63873098329777
0 FENGYUN 1C DEB
1 33728U 99025DHR 13289.46769911  .00003766  00000-0  50241-3 0  4356
2 33728 098.9863 166.8485 0227675 005.6736 115.3085 14.63897637330296
0 FENGYUN 1C DEB
1 33728U 99025DHR 13292.13931096  .00003683  00000-0  49176-3 0  4363
2 33728 098.9854 169.7641 0227435 357.4645 154.8827 14.63915278330680
0 FENGYUN 1C DEB
1 33728U 99025DHR 13295.14649950  .00004505  00000-0  59937-3 0  4373
2 33728 098.9848 173.0454 0227251 348.2345 163.1761 14.63936740331121
